89P/Russell,e,12.0714,41.3486,250.3978,3.753594,0.1355293,0.40818722,292.0289,11/11.0/2022,2000,g 11.5,6.0
# From MPEC 2022-K19
90P/Gehrels,e,9.6514,13.2055,29.0580,6.051140,0.0662138,0.51094458,130.3523,11/11.0/2022,2000,g  8.5,6.0
# From MPEC 2021-S45
91P/Russell,e,14.1555,246.8146,356.0126,3.903696,0.1277880,0.33408106,93.1937,11/11.0/2022,2000,g  7.5,6.0
# From MPEC 2014-J58
92P/Sanguin,e,19.5084,181.3616,163.8036,5.343084,0.0798024,0.66101417,223.8912,11/11.0/2022,2000,g 12.0,6.0
# From NK 2707
93P/Lovas,e,12.2033,339.6352,74.8346,4.380142,0.1075157,0.61350280,223.5627,11/11.0/2022,2000,g  9.0,4.0
# From MPEC 2022-VC5
94P/Russell,e,6.1878,70.8575,92.4279,3.508828,0.1499550,0.36530811,331.3408,11/11.0/2022,2000,g  9.0,6.0
# From MPC 75717
95P/Chiron,e,6.9195,209.3024,339.4892,13.71235,0.0194105,0.37621587,190.7468,11/11.0/2022,2000,g  6.5,2.0
# From MPEC 2022-ST7
96P/Machholz,e,57.5037,93.9551,14.7486,3.030431,0.1868304,0.96158177,344.8500,11/11.0/2022,2000,g 13.0,4.8
# From MPEC 2022-C56
97P/Metcalf-Brewington,e,17.9521,184.0768,229.9962,4.761108,0.0948729,0.46011698,25.4602,11/11.0/2022,2000,g  5.5,6.0
# From MPEC 2021-W31
98P/Takamizawa,e,10.5611,114.6809,157.8080,3.793893,0.1333756,0.56220396,90.0798,11/11.0/2022,2000,g  9.0,8.0
# From MPEC 2022-UE6
99P/Kowal,e,4.3399,28.1017,174.8720,6.102842,0.0653741,0.22889400,13.9206,11/11.0/2022,2000,g  4.5,6.0
# From MPEC 2022-QD9
100P/Hartley,e,25.5667,37.6875,181.9680,3.431631,0.1550434,0.41205154,14.2729,11/11.0/2022,2000,g  9.0,8.0
# From MPEC 2022-K19
101P/Chernykh,e,5.0511,116.2083,277.7581,5.808195,0.0704113,0.59636392,72.7302,11/11.0/2022,2000,g 10.0,4.8
# From MPEC 2022-C56
102P/Shoemaker,e,25.8827,339.3681,20.6325,3.815944,0.1322212,0.45713988,86.9200,11/11.0/2022,2000,g  6.5,8.0
# From MPEC 2018-HA5
103P/Hartley,e,13.6099,219.7493,181.2946,3.475066,0.1521456,0.69371617,308.9499,11/11.0/2022,2000,g  8.5,8.0
# From MPEC 2022-P82
104P/Kowal,e,5.7023,207.2068,227.2524,3.208284,0.1715121,0.66558125,52.0293,11/11.0/2022,2000,g 16.0,4.0
# From MPC109147
105P/Singer Brewster,e,9.1685,192.3964,46.4451,3.469210,0.1525310,0.40888232,237.3516,11/11.0/2022,2000,g 11.5,6.0
# From MPEC 2022-GA9
106P/Schuster,e,19.5371,48.8718,353.7103,3.764944,0.1349169,0.59392302,60.5984,11/11.0/2022,2000,g 14.0,4.8
# From MPEC 2015-M77
107P/Wilson-Harrington,e,2.7993,266.7742,95.4405,2.624501,0.2318110,0.63169097,18.1602,11/11.0/2022,2000,g  9.0,4.0
# From MPEC 2022-P82
108P/Ciffreo,e,11.4365,50.2789,354.4647,3.740355,0.1362495,0.55605995,58.1543,11/11.0/2022,2000,g  8.0,12.0
# From  105, 420
109P/Swift-Tuttle,e,113.8135,139.1737,153.0325,26.18901,0.0073540,0.96260268,80.3497,11/11.0/2022,2000,g  4.0,6.0
# From MPEC 2022-P82
110P/Hartley,e,11.7047,287.5249,167.4572,3.603700,0.1440725,0.31861590,55.9935,11/11.0/2022,2000,g  1.0,12.0
# From MPC 75718
111P/Helin-Roman-Crockett,e,4.2258,89.7545,1.0525,4.150390,0.1165657,0.10672666,59.7890,11/11.0/2022,2000,g  5.0,8.0
# From MPEC 2021-S45
112P/Urata-Niijima,e,24.2112,31.8333,21.4681,3.524632,0.1489475,0.59044802,149.9159,11/11.0/2022,2000,g 14.0,6.0
# From MPEC 2022-VC5
113P/Spitaler,e,5.2898,306.6776,115.5285,3.691267,0.1389764,0.41977338,22.5879,11/11.0/2022,2000,g 13.5,4.0
# From MPEC 2022-K19
114P/Wiseman-Skiff,e,18.2854,271.0283,172.7439,3.543244,0.1477755,0.55529063,152.4567,11/11.0/2022,2000,g 11.5,6.0
# From MPEC 2021-UA9
115P/Maury,e,11.6772,176.0065,121.0018,4.272046,0.1116221,0.51810356,93.1712,11/11.0/2022,2000,g 10.5,6.0
# From MPEC 2022-QD9
116P/Wild,e,3.6034,20.9802,173.2786,3.489959,0.1511728,0.37048434,17.7051,11/11.0/2022,2000,g  2.5,10.0
# From MPEC 2022-VC5
117P/Helin-Roman-Alu,e,8.7039,58.8404,222.9773,4.082974,0.1194646,0.25552555,15.0591,11/11.0/2022,2000,g  2.5,8.0
# From MPEC 2022-VC5
118P/Shoemaker-Levy,e,10.0918,142.0967,314.8355,3.346245,0.1610154,0.45342069,357.8532,11/11.0/2022,2000,g 12.0,4.0
# From MPEC 2022-VC5
119P/Parker-Hartley,e,7.3935,104.5712,322.0657,3.804539,0.1328162,0.38822078,12.0851,11/11.0/2022,2000,g  3.5,8.0
# From MPEC 2022-CN4
120P/Mueller,e,8.4898,358.6720,36.6530,3.965037,0.1248341,0.37486035,68.9732,11/11.0/2022,2000,g 12.0,4.0
# From MPEC 2022-V95
121P/Shoemaker-Holt,e,20.1652,94.1150,11.5972,4.583604,0.1004369,0.18612048,336.9658,11/11.0/2022,2000,g  6.5,8.0
# From MPC 75718
122P/de Vico,e,85.4967,79.6498,12.9914,17.62382,0.0133215,0.96231237,132.2157,11/11.0/2022,2000,g  7.5,5.2
# From MPEC 2021-F20
123P/West-Hartley,e,15.2854,45.9195,104.1015,3.879795,0.1289707,0.44453802,177.8278,11/11.0/2022,2000,g 12.2,4.0
# From MPEC 2022-K19
124P/Mrkos,e,31.6955,0.1110,185.2393,3.359888,0.1600357,0.49239134,149.4082,11/11.0/2022,2000,g 13.5,2.8
# From MPEC 2015-M77
125P/Spacewatch,e,9.9863,153.1491,87.1919,3.127671,0.1781856,0.51211768,274.0521,11/11.0/2022,2000,g  9.0,4.0
# From MPC 66205
126P/IRAS,e,45.8762,357.8721,356.5909,5.634232,0.0736974,0.69638239,342.5845,11/11.0/2022,2000,g  9.0,4.0
# From MPEC 2022-VC5
127P/Holt-Olmstead,e,14.3012,13.6046,6.2743,3.453210,0.1535924,0.35968425,14.2173,11/11.0/2022,2000,g 11.0,6.0
# From MPC 89014
128P/Shoemaker-Holt,e,4.3701,214.3226,210.2662,4.488790,0.1036359,0.32173857,220.7551,11/11.0/2022,2000,g  8.5,4.0
# From MPEC 2022-K19
129P/Shoemaker-Levy,e,3.4423,184.8626,307.4513,4.287964,0.1110011,0.08479415,357.8803,11/11.0/2022,2000,g 11.0,4.0
# From MPEC 2022-ED3
130P/McNaught-Hughes,e,6.0627,70.1863,246.0945,3.383136,0.1583890,0.46119128,277.5192,11/11.0/2022,2000,g 10.0,6.0
# From MPC102101
131P/Mueller,e,7.3607,214.1467,179.0583,3.678932,0.1396759,0.34463523,193.5003,11/11.0/2022,2000,g 11.0,4.0
# From MPEC 2022-O08
132P/Helin-Roman-Alu,e,5.3827,173.9951,216.3826,3.887417,0.1285916,0.56471063,46.6568,11/11.0/2022,2000,g 11.0,6.0
# From MPC 94676
133P/Elst-Pizarro,e,1.3897,160.0985,131.8996,3.165542,0.1749976,0.15645723,264.4278,11/11.0/2022,2000,g 15.4,2.0
# From MPC 89012
134P/Kowal-Vavrova,e,4.3347,202.0513,18.8506,6.264221,0.0628642,0.58508465,195.1138,11/11.0/2022,2000,g 11.5,4.0
# From MPEC 2022-OB6
135P/Shoemaker-Levy,e,6.0634,213.0266,22.3235,3.799988,0.1330549,0.29469549,28.9591,11/11.0/2022,2000,g  7.0,8.0
# From MPEC 2022-K19
136P/Mueller,e,9.4244,137.4369,225.0696,4.189895,0.1149210,0.29338813,269.9463,11/11.0/2022,2000,g 11.0,4.0
# From MPEC 2022-K19
137P/Shoemaker-Levy,e,4.8573,232.9599,141.1372,4.521286,0.1025206,0.57385766,146.3286,11/11.0/2022,2000,g 11.0,4.0
# From MPEC 2016-U66
138P/Shoemaker-Levy,e,10.0905,309.2929,95.5756,3.620511,0.1430702,0.53126410,184.1545,11/11.0/2022,2000,g 15.0,6.0
# From MPEC 2020-HN5
139P/Vaisala-Oterma,e,2.3364,242.1408,165.7496,4.519071,0.1025960,0.24777878,184.1913,11/11.0/2022,2000,g  9.5,4.0
# From MPEC 2015-E14
140P/Bowell-Skiff,e,3.8458,343.2243,172.7361,6.416607,0.0606381,0.69344031,161.0881,11/11.0/2022,2000,g 11.5,6.0
# From MPEC 2022-K19
141P/Machholz,e,13.9526,241.8005,153.5922,3.057574,0.1843480,0.73601119,128.0332,11/11.0/2022,2000,g 12.0,12.0
# From MPEC 2022-SU8
141P-I/Machholz,e,13.9525,241.8053,153.5665,3.048225,0.1851968,0.73521846,128.7044,11/11.0/2022,2000,g 17.5,4.0
# From MPEC 2021-Y10
142P/Ge-Wang,e,12.2514,175.9320,174.0061,4.999751,0.0881620,0.49713897,48.2487,11/11.0/2022,2000,g  8.5,6.0
# From MPEC 2022-UE6
143P/Kowal-Mrkos,e,4.7156,244.9924,320.3320,4.273495,0.1115654,0.41290130,184.2256,11/11.0/2022,2000,g 13.5,2.0
# From MPC104795
144P/Kushida,e,3.9302,242.9936,216.3569,3.828115,0.1315912,0.63511069,302.0138,11/11.0/2022,2000,g  8.5,8.0
# From MPC108598
145P/Shoemaker-Levy,e,11.2799,26.7962,10.2614,4.136022,0.1171736,0.54229570,222.0054,11/11.0/2022,2000,g 13.5,4.0
# From MPC100284
146P/Shoemaker-LINEAR,e,23.1173,53.3763,317.0169,4.029688,0.1218420,0.64747622,282.8216,11/11.0/2022,2000,g 15.0,4.0
# From MPC 75720
147P/Kushida-Muramatsu,e,2.3084,91.8106,348.2016,4.032024,0.1217361,0.21696615,312.5901,11/11.0/2022,2000,g 14.0,4.0
# From MPEC 2021-S45
148P/Anderson-LINEAR,e,3.6580,89.2053,8.0394,3.618536,0.1431874,0.54990361,21.5220,11/11.0/2022,2000,g 16.0,2.0
# From MPC 75720
149P/Mueller,e,34.3126,143.9888,30.9933,4.132544,0.1173216,0.32251954,182.4835,11/11.0/2022,2000,g  8.0,8.0
# From MPEC 2022-VC5
150P/LONEOS,e,18.5240,272.1378,245.8914,3.875644,0.1291779,0.54884301,297.0458,11/11.0/2022,2000,g 13.5,4.0
# From MPEC 2022-K19
151P/Helin,e,4.7280,143.1519,216.1041,5.763004,0.0712411,0.57381353,184.2000,11/11.0/2022,2000,g 10.0,6.0
# From MPEC 2022-UY9
152P/Helin-Lawrence,e,9.8799,91.8558,164.0065,4.476986,0.1040460,0.30860385,31.3218,11/11.0/2022,2000,g 11.5,4.0
# From MPC 46101
153P/Ikeya-Zhang,e,28.1037,93.4259,34.7512,50.39178,0.0027553,0.98973733,0.0000,03/02.7838/2002,2000,g  9.0,4.0
# From MPEC 2022-K19
154P/Brewington,e,17.6322,343.0324,47.9003,4.798218,0.0937743,0.67609518,305.7551,11/11.0/2022,2000,g  2.5,12.0
# From MPEC 2021-F20
155P/Shoemaker,e,6.4006,97.1730,14.5581,6.570183,0.0585245,0.72645188,63.9063,11/11.0/2022,2000,g 13.8,4.0
# From MPEC 2022-GA9
156P/Russell-LINEAR,e,17.2688,35.3441,0.4683,3.461980,0.1530091,0.61511521,110.6095,11/11.0/2022,2000,g 15.5,2.0
# From MPEC 2022-VC5
157P/Tritton,e,12.4207,287.5473,155.0626,3.545457,0.1476372,0.55666951,9.1814,11/11.0/2022,2000,g 10.0,4.0
# From MPEC 2022-VC5
157P-B/Tritton,e,12.4276,287.0896,153.9362,3.100687,0.1805166,0.49965504,11.5530,11/11.0/2022,2000,g 15.7,4.0
# From MPEC 2022-VC5
158P/Kowal-LINEAR,e,7.5796,133.6722,189.1480,5.298911,0.0808024,0.09062771,31.2672,11/11.0/2022,2000,g  9.0,4.0
# From MPEC 2021-N06
159P/LONEOS,e,23.4805,54.9483,4.5689,5.852646,0.0696107,0.38244272,113.6708,11/11.0/2022,2000,g 10.0,4.0
# From MPEC 2022-K19
160P/LINEAR,e,15.6134,333.3610,12.7702,3.776496,0.1342983,0.52616322,144.2833,11/11.0/2022,2000,g 15.5,2.0
# From MPC 75721
161P/Hartley-IRAS,e,95.8022,1.5839,47.0194,7.718143,0.0459658,0.83536723,292.0480,11/11.0/2022,2000,g  8.5,6.0
# From MPEC 2022-M21
162P/SidingSpring,e,27.5633,30.8893,357.1804,3.092011,0.1812769,0.58314440,127.4338,11/11.0/2022,2000,g 12.0,4.0
# From MPEC 2021-S45
